start=new Date('2022-09-19T00:00:00.000Z').valueOf();
sats=[{"NORAD_CAT_ID":"51114","MEAN_MOTION_DOT":"-0.00000397","TLE_LINE2":"2 51114  53.2160 223.5641 0001990  38.7478 321.3656 15.08840802 37383","LAUNCH_DATE":"2022-01-19","OBJECT_TYPE":"PAYLOAD","RCS_SIZE":"LARGE","MEAN_ANOMALY":"321.3656","DECAY_DATE":null,"PERIAPSIS":"538.366","ARG_OF_PERICENTER":"38.7478","EPHEMERIS_TYPE":"0","TLE_LINE1":"1 51114U 22005L   22261.20902303 -.00000397  00000-0 -68228-5 0  9995","MEAN_ELEMENT_THEORY":"SGP4","PERIOD":"95.438","APOAPSIS":"541.120","ELEMENT_SET_NO":"999","TIME_SYSTEM":"UTC","OBJECT_NAME":"STARLINK-3375","CENTER_NAME":"EARTH","BSTAR":"-0.00000682280000","MEAN_MOTION_DDOT":"0.0000000000000","MEAN_MOTION":"15.08840802","CLASSIFICATION_TYPE":"U","GP_ID":"212908716","INCLINATION":"53.2160","REF_FRAME":"TEME","REV_AT_EPOCH":"3738","COUNTRY_CODE":"US","FILE":"3577171","SEMIMAJOR_AXIS":"6917.878","EPOCH":"2022-09-18T05:00:59.589792","RA_OF_ASC_NODE":"223.5641","SITE":"AFETR","OBJECT_ID":"2022-005L","ECCENTRICITY":"0.00019900"},{"EPHEMERIS_TYPE":"0","PERIAPSIS":"538.486","DECAY_DATE":null,"ARG_OF_PERICENTER":"55.1012","MEAN_ELEMENT_THEORY":"SGP4","TLE_LINE1":"1 51115U 22005M   22261.84566499  .00010078  00000-0  65022-3 0  9990","MEAN_MOTION_DOT":"0.00010078","NORAD_CAT_ID":"51115","RCS_SIZE":"LARGE","MEAN_ANOMALY":"305.0147","LAUNCH_DATE":"2022-01-19","TLE_LINE2":"2 51115  53.2154 220.6834 0001774  55.1012 305.0147 15.08850470 37472","OBJECT_TYPE":"PAYLOAD","EPOCH":"2022-09-18T20:17:45.455136","COUNTRY_CODE":"US","SEMIMAJOR_AXIS":"6917.848","FILE":"3577422","ECCENTRICITY":"0.00017740","SITE":"AFETR","RA_OF_ASC_NODE":"220.6834","OBJECT_ID":"2022-005M","BSTAR":"0.00065022000000","CENTER_NAME":"EARTH","MEAN_MOTION_DDOT":"0.0000000000000","APOAPSIS":"540.941","PERIOD":"95.437","TIME_SYSTEM":"UTC","ELEMENT_SET_NO":"999","OBJECT_NAME":"STARLINK-3397","INCLINATION":"53.2154","GP_ID":"212966763","REV_AT_EPOCH":"3747","REF_FRAME":"TEME","CLASSIFICATION_TYPE":"U","MEAN_MOTION":"15.08850470"},{"CENTER_NAME":"EARTH","BSTAR":"0.00003396600000","MEAN_MOTION_DDOT":"0.0000000000000","ELEMENT_SET_NO":"999","APOAPSIS":"540.918","PERIOD":"95.438","TIME_SYSTEM":"UTC","OBJECT_NAME":"STARLINK-3243","GP_ID":"212965516","INCLINATION":"53.2162","REF_FRAME":"TEME","REV_AT_EPOCH":"3747","CLASSIFICATION_TYPE":"U","MEAN_MOTION":"15.08833644","EPOCH":"2022-09-18T20:38:57.351264","COUNTRY_CODE":"US","FILE":"3577422","SEMIMAJOR_AXIS":"6917.900","ECCENTRICITY":"0.00016670","SITE":"AFETR","OBJECT_ID":"2022-005N","RA_OF_ASC_NODE":"220.6206","MEAN_MOTION_DOT":"0.00000252","NORAD_CAT_ID":"51116","RCS_SIZE":"LARGE","MEAN_ANOMALY":"316.5196","TLE_LINE2":"2 51116  53.2162 220.6206 0001667  43.5928 316.5196 15.08833644 37478","LAUNCH_DATE":"2022-01-19","OBJECT_TYPE":"PAYLOAD","EPHEMERIS_TYPE":"0","DECAY_DATE":null,"PERIAPSIS":"538.612","ARG_OF_PERICENTER":"43.5928","MEAN_ELEMENT_THEORY":"SGP4","TLE_LINE1":"1 51116U 22005N   22261.86038601  .00000252  00000-0  33966-4 0  9998"},{"BSTAR":"0.00001470200000","CENTER_NAME":"EARTH","MEAN_MOTION_DDOT":"0.0000000000000","APOAPSIS":"540.895","PERIOD":"95.437","ELEMENT_SET_NO":"999","TIME_SYSTEM":"UTC","OBJECT_NAME":"STARLINK-3391","INCLINATION":"53.2173","GP_ID":"212909958","REV_AT_EPOCH":"3739","REF_FRAME":"TEME","CLASSIFICATION_TYPE":"U","MEAN_MOTION":"15.08841020","EPOCH":"2022-09-18T07:13:28.324128","COUNTRY_CODE":"US","SEMIMAJOR_AXIS":"6917.877","FILE":"3577171","ECCENTRICITY":"0.00016670","SITE":"AFETR","RA_OF_ASC_NODE":"223.1353","OBJECT_ID":"2022-005P","MEAN_MOTION_DOT":"-0.00000054","NORAD_CAT_ID":"51117","RCS_SIZE":"LARGE","MEAN_ANOMALY":"309.9125","LAUNCH_DATE":"2022-01-19","TLE_LINE2":"2 51117  53.2173 223.1353 0001667  50.2013 309.9125 15.08841020 37398","OBJECT_TYPE":"PAYLOAD","EPHEMERIS_TYPE":"0","PERIAPSIS":"538.589","DECAY_DATE":null,"ARG_OF_PERICENTER":"50.2013","MEAN_ELEMENT_THEORY":"SGP4","TLE_LINE1":"1 51117U 22005P   22261.30102227 -.00000054  00000-0  14702-4 0  9992"},{"MEAN_MOTION":"15.08846546","CLASSIFICATION_TYPE":"U","GP_ID":"212967010","INCLINATION":"53.2181","REF_FRAME":"TEME","REV_AT_EPOCH":"3743","PERIOD":"95.437","APOAPSIS":"541.119","ELEMENT_SET_NO":"999","TIME_SYSTEM":"UTC","OBJECT_NAME":"STARLINK-3394","CENTER_NAME":"EARTH","BSTAR":"0.00007294800000","MEAN_MOTION_DDOT":"0.0000000000000","OBJECT_ID":"2022-005Q","SITE":"AFETR","RA_OF_ASC_NODE":"221.8600","ECCENTRICITY":"0.00020140","COUNTRY_CODE":"US","FILE":"3577422","SEMIMAJOR_AXIS":"6917.860","EPOCH":"2022-09-18T14:01:30.067392","TLE_LINE2":"2 51118  53.2181 221.8600 0002014  51.7389 308.3784 15.08846546 37434","LAUNCH_DATE":"2022-01-19","OBJECT_TYPE":"PAYLOAD","RCS_SIZE":"LARGE","MEAN_ANOMALY":"308.3784","NORAD_CAT_ID":"51118","MEAN_MOTION_DOT":"0.00000873","TLE_LINE1":"1 51118U 22005Q   22261.58437578  .00000873  00000-0  72948-4 0  9997","MEAN_ELEMENT_THEORY":"SGP4","DECAY_DATE":null,"PERIAPSIS":"538.332","ARG_OF_PERICENTER":"51.7389","EPHEMERIS_TYPE":"0"},{"NORAD_CAT_ID":"51119","MEAN_MOTION_DOT":"0.00001611","LAUNCH_DATE":"2022-01-19","TLE_LINE2":"2 51119  53.2163 220.4880 0001809  47.6153 312.4992 15.08842187 37483","OBJECT_TYPE":"PAYLOAD","RCS_SIZE":"LARGE","MEAN_ANOMALY":"312.4992","PERIAPSIS":"538.487","DECAY_DATE":null,"ARG_OF_PERICENTER":"47.6153","EPHEMERIS_TYPE":"0","TLE_LINE1":"1 51119U 22005R   22261.89349847  .00001611  00000-0  11930-3 0  9997","MEAN_ELEMENT_THEORY":"SGP4","PERIOD":"95.437","APOAPSIS":"540.990","ELEMENT_SET_NO":"999","TIME_SYSTEM":"UTC","OBJECT_NAME":"STARLINK-3390","BSTAR":"0.00011930000000","CENTER_NAME":"EARTH","MEAN_MOTION_DDOT":"0.0000000000000","MEAN_MOTION":"15.08842187","CLASSIFICATION_TYPE":"U","INCLINATION":"53.2163","GP_ID":"212967263","REV_AT_EPOCH":"3748","REF_FRAME":"TEME","COUNTRY_CODE":"US","SEMIMAJOR_AXIS":"6917.874","FILE":"3577422","EPOCH":"2022-09-18T21:26:38.267808","SITE":"AFETR","RA_OF_ASC_NODE":"220.4880","OBJECT_ID":"2022-005R","ECCENTRICITY":"0.00018090"},{"NORAD_CAT_ID":"51120","MEAN_MOTION_DOT":"0.00001374","OBJECT_TYPE":"PAYLOAD","TLE_LINE2":"2 51120  53.2165 220.5243 0001983  48.2270 311.8892 15.08839314 37481","LAUNCH_DATE":"2022-01-19","MEAN_ANOMALY":"311.8892","RCS_SIZE":"LARGE","ARG_OF_PERICENTER":"48.2270","DECAY_DATE":null,"PERIAPSIS":"538.376","EPHEMERIS_TYPE":"0","TLE_LINE1":"1 51120U 22005S   22261.88613976  .00001374  00000-0  10441-3 0  9997","MEAN_ELEMENT_THEORY":"SGP4","OBJECT_NAME":"STARLINK-3398","APOAPSIS":"541.119","ELEMENT_SET_NO":"999","PERIOD":"95.438","TIME_SYSTEM":"UTC","MEAN_MOTION_DDOT":"0.0000000000000","CENTER_NAME":"EARTH","BSTAR":"0.00010441000000","MEAN_MOTION":"15.08839314","CLASSIFICATION_TYPE":"U","REF_FRAME":"TEME","REV_AT_EPOCH":"3748","GP_ID":"212966016","INCLINATION":"53.2165","FILE":"3577422","SEMIMAJOR_AXIS":"6917.882","COUNTRY_CODE":"US","EPOCH":"2022-09-18T21:16:02.475264","SITE":"AFETR","OBJECT_ID":"2022-005S","RA_OF_ASC_NODE":"220.5243","ECCENTRICITY":"0.00019830"},{"APOAPSIS":"541.218","PERIOD":"95.438","TIME_SYSTEM":"UTC","ELEMENT_SET_NO":"999","OBJECT_NAME":"STARLINK-3399","CENTER_NAME":"EARTH","BSTAR":"0.00013247000000","MEAN_MOTION_DDOT":"0.0000000000000","CLASSIFICATION_TYPE":"U","MEAN_MOTION":"15.08840773","GP_ID":"212965766","INCLINATION":"53.2168","REF_FRAME":"TEME","REV_AT_EPOCH":"3748","COUNTRY_CODE":"US","FILE":"3577422","SEMIMAJOR_AXIS":"6917.878","EPOCH":"2022-09-18T21:37:13.909152","OBJECT_ID":"2022-005T","SITE":"AFETR","RA_OF_ASC_NODE":"220.4356","ECCENTRICITY":"0.00021320","NORAD_CAT_ID":"51121","MEAN_MOTION_DOT":"0.00001821","TLE_LINE2":"2 51121  53.2168 220.4356 0002132  46.5627 313.5542 15.08840773 37485","LAUNCH_DATE":"2022-01-19","OBJECT_TYPE":"PAYLOAD","RCS_SIZE":"LARGE","MEAN_ANOMALY":"313.5542","DECAY_DATE":null,"PERIAPSIS":"538.268","ARG_OF_PERICENTER":"46.5627","EPHEMERIS_TYPE":"0","TLE_LINE1":"1 51121U 22005T   22261.90085543  .00001821  00000-0  13247-3 0  9998","MEAN_ELEMENT_THEORY":"SGP4"},{"ECCENTRICITY":"0.00015560","SITE":"AFETR","OBJECT_ID":"2022-005U","RA_OF_ASC_NODE":"220.5085","EPOCH":"2022-09-18T21:21:20.310624","COUNTRY_CODE":"US","SEMIMAJOR_AXIS":"6917.867","FILE":"3577422","INCLINATION":"53.2176","GP_ID":"212966511","REV_AT_EPOCH":"3748","REF_FRAME":"TEME","CLASSIFICATION_TYPE":"U","MEAN_MOTION":"15.08844293","BSTAR":"0.00018458000000","CENTER_NAME":"EARTH","MEAN_MOTION_DDOT":"0.0000000000000","APOAPSIS":"540.809","ELEMENT_SET_NO":"999","PERIOD":"95.437","TIME_SYSTEM":"UTC","OBJECT_NAME":"STARLINK-3373","MEAN_ELEMENT_THEORY":"SGP4","TLE_LINE1":"1 51122U 22005U   22261.88981841  .00002651  00000-0  18458-3 0  9993","EPHEMERIS_TYPE":"0","PERIAPSIS":"538.656","DECAY_DATE":null,"ARG_OF_PERICENTER":"58.8286","RCS_SIZE":"LARGE","MEAN_ANOMALY":"301.2858","LAUNCH_DATE":"2022-01-19","TLE_LINE2":"2 51122  53.2176 220.5085 0001556  58.8286 301.2858 15.08844293 37486","OBJECT_TYPE":"PAYLOAD","MEAN_MOTION_DOT":"0.00002651","NORAD_CAT_ID":"51122"},{"MEAN_MOTION_DOT":"-0.00000318","NORAD_CAT_ID":"51123","RCS_SIZE":"LARGE","MEAN_ANOMALY":"298.0836","LAUNCH_DATE":"2022-01-19","TLE_LINE2":"2 51123  53.2181 220.5395 0001857  62.0344 298.0836 15.08846360 37489","OBJECT_TYPE":"PAYLOAD","EPHEMERIS_TYPE":"0","PERIAPSIS":"538.441","DECAY_DATE":null,"ARG_OF_PERICENTER":"62.0344","MEAN_ELEMENT_THEORY":"SGP4","TLE_LINE1":"1 51123U 22005V   22261.88245976 -.00000318  00000-0 -18610-5 0  9998","BSTAR":"-0.00000186100000","CENTER_NAME":"EARTH","MEAN_MOTION_DDOT":"0.0000000000000","APOAPSIS":"541.011","ELEMENT_SET_NO":"999","PERIOD":"95.437","TIME_SYSTEM":"UTC","OBJECT_NAME":"STARLINK-3392","INCLINATION":"53.2181","GP_ID":"212966764","REV_AT_EPOCH":"3748","REF_FRAME":"TEME","MEAN_MOTION":"15.08846360","CLASSIFICATION_TYPE":"U","EPOCH":"2022-09-18T21:10:44.523264","COUNTRY_CODE":"US","SEMIMAJOR_AXIS":"6917.861","FILE":"3577422","ECCENTRICITY":"0.00018570","OBJECT_ID":"2022-005V","SITE":"AFETR","RA_OF_ASC_NODE":"220.5395"}];
